{"type":"FeatureCollection","features":[{"type":"Feature","properties":{"pc_code":null,"name":null,"km_upstream":null,"km_downstream":null,"main_works":null,"fish_monitoring_overview":null,"observations":"Atribute descriptive indisponibile ?n sursa KMZ; geometria este p?strat? exact.","source_files":["T11_P57_267908_mp_WGS84.kmz","T11_P57_267908_mp_WGS84_1.kmz"],"source_names":["0","0"],"source_feature_index":1,"representation_type":"source polygon"},"geometry":{"type":"Polygon","coordinates":[[[29.62860707727168,45.02767500286733],[29.63364401130791,45.02879063753768],[29.63750860629039,45.02970317937704],[29.63861662575172,45.03070346748349],[29.63856051562837,45.0317354648414],[29.63526339204998,45.03180728870561],[29.63211753220574,45.03120122404169],[29.62673687993746,45.02988971231696],[29.62637518190098,45.02792456436024],[29.626208666266,45.02715984186224],[29.62860707727168,45.02767500286733]]]}},{"type":"Feature","properties":{"pc_code":null,"name":null,"km_upstream":null,"km_downstream":null,"main_works":null,"fish_monitoring_overview":null,"observations":"Atribute descriptive indisponibile ?n sursa KMZ; geometria este p?strat? exact.","source_files":["T11_P57_a_167592_mp_WGS84.kmz"],"source_names":["0"],"source_feature_index":2,"representation_type":"source polygon"},"geometry":{"type":"Polygon","coordinates":[[[29.61716037992721,45.02500324717213],[29.61808247553426,45.02543922177185],[29.61979055503475,45.02612392117108],[29.62149123351722,45.02641158388778],[29.62534131615401,45.02702958017096],[29.62585855101544,45.02973229465557],[29.62127635193934,45.02844738840716],[29.61733796034346,45.02735461178113],[29.61735182109342,45.02721603233614],[29.61735034931439,45.02710387654182],[29.6164043272931,45.02485955553934],[29.61630287103619,45.02467758337641],[29.61716037992721,45.02500324717213]]]}}]}